start=new Date('2022-11-04T00:00:00.000Z').valueOf();
sats=[{"INCLINATION":"53.2146","GP_ID":"216864662","LAUNCH_DATE":"2022-10-20","MEAN_MOTION_DDOT":"0.0000000000000","TIME_SYSTEM":"UTC","EPOCH":"2022-11-03T22:00:00.999936","FILE":"3644033","OBJECT_ID":"2022-136N","PERIOD":"91.528","CLASSIFICATION_TYPE":"U","MEAN_MOTION":"15.73283097","COUNTRY_CODE":"US","TLE_LINE2":"2 54063  53.2146  77.1040 0001821  30.5297 246.2518 15.73283097  1305","DECAY_DATE":null,"APOAPSIS":"350.748","SITE":"AFETR","ARG_OF_PERICENTER":"30.5297","OBJECT_NAME":"STARLINK-5225","EPHEMERIS_TYPE":"0","NORAD_CAT_ID":"54063","SEMIMAJOR_AXIS":"6727.658","BSTAR":"-0.00008578000000","RA_OF_ASC_NODE":"77.1040","MEAN_ELEMENT_THEORY":"SGP4","ECCENTRICITY":"0.00018210","REV_AT_EPOCH":"130","RCS_SIZE":"LARGE","REF_FRAME":"TEME","MEAN_ANOMALY":"246.2518","ELEMENT_SET_NO":"999","CENTER_NAME":"EARTH","OBJECT_TYPE":"PAYLOAD","TLE_LINE1":"1 54063U 22136N   22307.91667824 -.00012686  00000-0 -85780-4 0  9996","MEAN_MOTION_DOT":"-0.00012686","PERIAPSIS":"348.298"},{"MEAN_ANOMALY":"279.7665","ELEMENT_SET_NO":"999","MEAN_MOTION_DOT":"-0.00035516","TLE_LINE1":"1 54064U 22136P   22307.91667824 -.00035516  00000-0 -24859-3 0  9993","OBJECT_TYPE":"PAYLOAD","PERIAPSIS":"347.988","CENTER_NAME":"EARTH","NORAD_CAT_ID":"54064","SEMIMAJOR_AXIS":"6727.611","BSTAR":"-0.00024859000000","RA_OF_ASC_NODE":"77.0492","REF_FRAME":"TEME","ECCENTRICITY":"0.00022130","MEAN_ELEMENT_THEORY":"SGP4","RCS_SIZE":"MEDIUM","REV_AT_EPOCH":"130","OBJECT_ID":"2022-136P","PERIOD":"91.527","FILE":"3644033","CLASSIFICATION_TYPE":"U","ARG_OF_PERICENTER":"21.4088","EPHEMERIS_TYPE":"0","OBJECT_NAME":"STARLINK-5172","APOAPSIS":"350.965","SITE":"AFETR","MEAN_MOTION":"15.73299543","DECAY_DATE":null,"TLE_LINE2":"2 54064  53.2140  77.0492 0002213  21.4088 279.7665 15.73299543  1300","COUNTRY_CODE":"US","GP_ID":"216864767","INCLINATION":"53.2140","EPOCH":"2022-11-03T22:00:00.999936","MEAN_MOTION_DDOT":"0.0000000000000","LAUNCH_DATE":"2022-10-20","TIME_SYSTEM":"UTC"},{"DECAY_DATE":null,"TLE_LINE2":"2 54065  53.2149  77.1022 0001664  28.1434 249.8299 15.73300865  1309","COUNTRY_CODE":"US","MEAN_MOTION":"15.73300865","OBJECT_NAME":"STARLINK-5187","ARG_OF_PERICENTER":"28.1434","EPHEMERIS_TYPE":"0","SITE":"AFETR","APOAPSIS":"350.592","CLASSIFICATION_TYPE":"U","PERIOD":"91.527","OBJECT_ID":"2022-136Q","FILE":"3644033","TIME_SYSTEM":"UTC","MEAN_MOTION_DDOT":"0.0000000000000","LAUNCH_DATE":"2022-10-20","EPOCH":"2022-11-03T22:00:00.999936","INCLINATION":"53.2149","GP_ID":"216864143","CENTER_NAME":"EARTH","PERIAPSIS":"348.353","MEAN_MOTION_DOT":"-0.00054449","TLE_LINE1":"1 54065U 22136Q   22307.91667824 -.00054449  00000-0 -38435-3 0  9995","OBJECT_TYPE":"PAYLOAD","ELEMENT_SET_NO":"999","MEAN_ANOMALY":"249.8299","REV_AT_EPOCH":"130","RCS_SIZE":"LARGE","ECCENTRICITY":"0.00016640","MEAN_ELEMENT_THEORY":"SGP4","REF_FRAME":"TEME","RA_OF_ASC_NODE":"77.1022","BSTAR":"-0.00038435000000","SEMIMAJOR_AXIS":"6727.608","NORAD_CAT_ID":"54065"},{"BSTAR":"-0.00009795800000","RA_OF_ASC_NODE":"77.1048","SEMIMAJOR_AXIS":"6727.190","NORAD_CAT_ID":"54066","RCS_SIZE":"MEDIUM","REV_AT_EPOCH":"130","MEAN_ELEMENT_THEORY":"SGP4","ECCENTRICITY":"0.00018260","REF_FRAME":"TEME","ELEMENT_SET_NO":"999","MEAN_ANOMALY":"219.5181","CENTER_NAME":"EARTH","PERIAPSIS":"347.827","OBJECT_TYPE":"PAYLOAD","TLE_LINE1":"1 54066U 22136R   22307.91667824 -.00014494  00000-0 -97958-4 0  9998","MEAN_MOTION_DOT":"-0.00014494","INCLINATION":"53.2148","GP_ID":"216864318","TIME_SYSTEM":"UTC","MEAN_MOTION_DDOT":"0.0000000000000","LAUNCH_DATE":"2022-10-20","EPOCH":"2022-11-03T22:00:00.999936","CLASSIFICATION_TYPE":"U","FILE":"3644033","OBJECT_ID":"2022-136R","PERIOD":"91.519","TLE_LINE2":"2 54066  53.2148  77.1048 0001826  57.2743 219.5181 15.73447223  1307","COUNTRY_CODE":"US","DECAY_DATE":null,"MEAN_MOTION":"15.73447223","SITE":"AFETR","APOAPSIS":"350.284","ARG_OF_PERICENTER":"57.2743","OBJECT_NAME":"STARLINK-5151","EPHEMERIS_TYPE":"0"},{"TIME_SYSTEM":"UTC","MEAN_MOTION_DDOT":"0.0000000000000","LAUNCH_DATE":"2022-10-20","EPOCH":"2022-11-03T22:00:00.999936","INCLINATION":"53.2152","GP_ID":"216864942","DECAY_DATE":null,"COUNTRY_CODE":"US","TLE_LINE2":"2 54067  53.2152  77.1014 0002123  27.0161 252.0614 15.73227847  1307","MEAN_MOTION":"15.73227847","OBJECT_NAME":"STARLINK-5174","ARG_OF_PERICENTER":"27.0161","EPHEMERIS_TYPE":"0","SITE":"AFETR","APOAPSIS":"351.109","CLASSIFICATION_TYPE":"U","OBJECT_ID":"2022-136S","PERIOD":"91.532","FILE":"3644033","RCS_SIZE":"MEDIUM","REV_AT_EPOCH":"130","ECCENTRICITY":"0.00021230","MEAN_ELEMENT_THEORY":"SGP4","REF_FRAME":"TEME","RA_OF_ASC_NODE":"77.1014","BSTAR":"0.00002742100000","SEMIMAJOR_AXIS":"6727.816","NORAD_CAT_ID":"54067","CENTER_NAME":"EARTH","PERIAPSIS":"348.252","MEAN_MOTION_DOT":"0.00003233","TLE_LINE1":"1 54067U 22136S   22307.91667824  .00003233  00000-0  27421-4 0  9994","OBJECT_TYPE":"PAYLOAD","ELEMENT_SET_NO":"999","MEAN_ANOMALY":"252.0614"},{"FILE":"3644033","PERIOD":"91.529","OBJECT_ID":"2022-136T","CLASSIFICATION_TYPE":"U","MEAN_MOTION":"15.73269894","TLE_LINE2":"2 54068  53.2146  77.1003 0000985  80.7370 197.9161 15.73269894  1303","COUNTRY_CODE":"US","DECAY_DATE":null,"APOAPSIS":"350.224","SITE":"AFETR","OBJECT_NAME":"STARLINK-5222","ARG_OF_PERICENTER":"80.7370","EPHEMERIS_TYPE":"0","INCLINATION":"53.2146","GP_ID":"216864488","MEAN_MOTION_DDOT":"0.0000000000000","LAUNCH_DATE":"2022-10-20","TIME_SYSTEM":"UTC","EPOCH":"2022-11-03T22:00:00.999936","MEAN_ANOMALY":"197.9161","ELEMENT_SET_NO":"999","CENTER_NAME":"EARTH","OBJECT_TYPE":"PAYLOAD","MEAN_MOTION_DOT":"-0.00046221","TLE_LINE1":"1 54068U 22136T   22307.91667824 -.00046221  00000-0 -32575-3 0  9996","PERIAPSIS":"348.898","SEMIMAJOR_AXIS":"6727.696","NORAD_CAT_ID":"54068","RA_OF_ASC_NODE":"77.1003","BSTAR":"-0.00032575000000","MEAN_ELEMENT_THEORY":"SGP4","ECCENTRICITY":"0.00009850","REV_AT_EPOCH":"130","RCS_SIZE":"LARGE","REF_FRAME":"TEME"},{"CENTER_NAME":"EARTH","MEAN_MOTION_DOT":"-0.00049684","TLE_LINE1":"1 54069U 22136U   22307.91667824 -.00049684  00000-0 -35001-3 0  9990","OBJECT_TYPE":"PAYLOAD","PERIAPSIS":"348.288","MEAN_ANOMALY":"247.3024","ELEMENT_SET_NO":"999","MEAN_ELEMENT_THEORY":"SGP4","ECCENTRICITY":"0.00017280","REV_AT_EPOCH":"130","RCS_SIZE":"MEDIUM","REF_FRAME":"TEME","NORAD_CAT_ID":"54069","SEMIMAJOR_AXIS":"6727.586","BSTAR":"-0.00035001000000","RA_OF_ASC_NODE":"77.0952","MEAN_MOTION":"15.73308577","DECAY_DATE":null,"COUNTRY_CODE":"US","TLE_LINE2":"2 54069  53.2148  77.0952 0001728  34.2379 247.3024 15.73308577  1307","EPHEMERIS_TYPE":"0","ARG_OF_PERICENTER":"34.2379","OBJECT_NAME":"STARLINK-5223","SITE":"AFETR","APOAPSIS":"350.613","OBJECT_ID":"2022-136U","PERIOD":"91.527","FILE":"3644033","CLASSIFICATION_TYPE":"U","LAUNCH_DATE":"2022-10-20","MEAN_MOTION_DDOT":"0.0000000000000","TIME_SYSTEM":"UTC","EPOCH":"2022-11-03T22:00:00.999936","INCLINATION":"53.2148","GP_ID":"216863725"},{"ARG_OF_PERICENTER":"27.6723","EPHEMERIS_TYPE":"0","OBJECT_NAME":"STARLINK-5181","SITE":"AFETR","APOAPSIS":"350.688","MEAN_MOTION":"15.73279771","DECAY_DATE":null,"TLE_LINE2":"2 54070  53.2154  77.0992 0001717  27.6723 252.1069 15.73279771  1303","COUNTRY_CODE":"US","PERIOD":"91.529","OBJECT_ID":"2022-136V","FILE":"3644033","CLASSIFICATION_TYPE":"U","EPOCH":"2022-11-03T22:00:00.999936","MEAN_MOTION_DDOT":"0.0000000000000","LAUNCH_DATE":"2022-10-20","TIME_SYSTEM":"UTC","GP_ID":"216863900","INCLINATION":"53.2154","MEAN_MOTION_DOT":"-0.00011291","TLE_LINE1":"1 54070U 22136V   22307.91667824 -.00011291  00000-0 -75868-4 0  9991","OBJECT_TYPE":"PAYLOAD","PERIAPSIS":"348.378","CENTER_NAME":"EARTH","MEAN_ANOMALY":"252.1069","ELEMENT_SET_NO":"999","REF_FRAME":"TEME","MEAN_ELEMENT_THEORY":"SGP4","ECCENTRICITY":"0.00017170","RCS_SIZE":"LARGE","REV_AT_EPOCH":"130","SEMIMAJOR_AXIS":"6727.668","NORAD_CAT_ID":"54070","RA_OF_ASC_NODE":"77.0992","BSTAR":"-0.00007586800000"},{"COUNTRY_CODE":"US","TLE_LINE2":"2 54071  53.2148  77.0958 0001793  32.6137 248.3521 15.73278445  1305","DECAY_DATE":null,"MEAN_MOTION":"15.73278445","SITE":"AFETR","APOAPSIS":"350.743","EPHEMERIS_TYPE":"0","OBJECT_NAME":"STARLINK-5168","ARG_OF_PERICENTER":"32.6137","CLASSIFICATION_TYPE":"U","FILE":"3644033","PERIOD":"91.529","OBJECT_ID":"2022-136W","TIME_SYSTEM":"UTC","MEAN_MOTION_DDOT":"0.0000000000000","LAUNCH_DATE":"2022-10-20","EPOCH":"2022-11-03T22:00:00.999936","INCLINATION":"53.2148","GP_ID":"216864663","CENTER_NAME":"EARTH","PERIAPSIS":"348.330","OBJECT_TYPE":"PAYLOAD","MEAN_MOTION_DOT":"-0.00014173","TLE_LINE1":"1 54071U 22136W   22307.91667824 -.00014173  00000-0 -96393-4 0  9990","ELEMENT_SET_NO":"999","MEAN_ANOMALY":"248.3521","RCS_SIZE":"LARGE","REV_AT_EPOCH":"130","MEAN_ELEMENT_THEORY":"SGP4","ECCENTRICITY":"0.00017930","REF_FRAME":"TEME","BSTAR":"-0.00009639300000","RA_OF_ASC_NODE":"77.0958","SEMIMAJOR_AXIS":"6727.672","NORAD_CAT_ID":"54071"},{"OBJECT_ID":"2022-136X","PERIOD":"91.529","FILE":"3644033","CLASSIFICATION_TYPE":"U","OBJECT_NAME":"STARLINK-5144","ARG_OF_PERICENTER":"34.4510","EPHEMERIS_TYPE":"0","SITE":"AFETR","APOAPSIS":"350.802","MEAN_MOTION":"15.73264643","DECAY_DATE":null,"COUNTRY_CODE":"US","TLE_LINE2":"2 54072  53.2152  77.0984 0001822  34.4510 245.9193 15.73264643  1301","GP_ID":"216864768","INCLINATION":"53.2152","EPOCH":"2022-11-03T22:00:00.999936","LAUNCH_DATE":"2022-10-20","MEAN_MOTION_DDOT":"0.0000000000000","TIME_SYSTEM":"UTC","MEAN_ANOMALY":"245.9193","ELEMENT_SET_NO":"999","TLE_LINE1":"1 54072U 22136X   22307.91667824  .00014287  00000-0  10575-3 0  9992","MEAN_MOTION_DOT":"0.00014287","OBJECT_TYPE":"PAYLOAD","PERIAPSIS":"348.350","CENTER_NAME":"EARTH","NORAD_CAT_ID":"54072","SEMIMAJOR_AXIS":"6727.711","BSTAR":"0.00010575000000","RA_OF_ASC_NODE":"77.0984","REF_FRAME":"TEME","MEAN_ELEMENT_THEORY":"SGP4","ECCENTRICITY":"0.00018220","REV_AT_EPOCH":"130","RCS_SIZE":"MEDIUM"}];
